STARLINK-36533          
1 67643U 26020AC  26050.91900721  .00394870  00000+0  23080-2 0  9993
2 67643  42.9981 249.9731 0001533 295.3899  64.6812 15.76450959  3284
STARLINK-36623          
1 67644U 26020AD  26050.91243386  .00151401  00000+0  91433-3 0  9990
2 67644  42.9982 249.9186 0001929 259.3230 100.7423 15.76412304  3280
STARLINK-36619          
1 67645U 26020AE  26050.91024639  .00250543  00000+0  14924-2 0  9995
2 67645  42.9981 249.9011 0001743 289.3557  70.7124 15.76428088  3286
ALSAT-3B                
1 67646U 26021A   26050.91522634  .00005808  00000+0  24468-3 0  9992
2 67646  97.4700 125.3288 0012432 191.6686 168.4265 15.23665047  3011
CZ-2C R/B               
1 67647U 26021B   26050.91849807  .00010469  00000+0  31615-3 0  9998
2 67647  97.6541 126.0308 0153230  73.0870 288.7101 15.23589824  2997
STARLINK-36719          
1 67648U 26022A   26050.87495309  .00113275  00000+0  74898-3 0  9998
2 67648  97.2833  83.9605 0001926  65.9863 294.1604 15.75229321  2747
STARLINK-36342          
1 67649U 26022B   26050.87424777  .00125547  00000+0  82910-3 0  9999
2 67649  97.2836  83.9608 0001539  71.1183 289.0249 15.75222656  2740
STARLINK-36703          
1 67650U 26022C   26050.93671245  .00114162  00000+0  75461-3 0  9996
2 67650  97.2833  84.0290 0001518  75.4634 284.6800 15.75234566  2751
STARLINK-36696          
1 67651U 26022D   26050.93494971  .00141379  00000+0  93087-3 0  9990
2 67651  97.2833  84.0317 0001356  89.5943 270.5477 15.75246135  2750
STARLINK-36699          
1 67652U 26022E   26050.93424407  .00222478  00000+0  14492-2 0  9990
2 67652  97.2828  84.0322 0001344  80.5251 279.6166 15.75265679  2750
STARLINK-36694          
1 67653U 26022F   26050.93212561  .00163770  00000+0  10748-2 0  9996
2 67653  97.2829  84.0357 0001555 105.5190 254.6247 15.75257019  2756
STARLINK-36620          
1 67654U 26022G   26050.93177420  .00153435  00000+0  10086-2 0  9993
2 67654  97.2830  84.0356 0001618  89.2230 270.9221 15.75249917  2752
