CCSDS_OMM_VERS = 2.0
CREATION_DATE  = 
ORIGINATOR     = 

OBJECT_NAME    = STARLINK-36533
OBJECT_ID      = 2026-020AC
CENTER_NAME    = EARTH
REF_FRAME      = TEME
TIME_SYSTEM    = UTC
MEAN_ELEMENT_THEORY = SGP/SGP4

EPOCH          = 2026-02-19T22:03:22.222944
MEAN_MOTION    = 15.76450959
ECCENTRICITY   = .00015339
INCLINATION    = 42.9981
RA_OF_ASC_NODE = 249.9731
ARG_OF_PERICENTER = 295.3899
MEAN_ANOMALY   = 64.6812

EPHEMERIS_TYPE = 0
CLASSIFICATION_TYPE = U
NORAD_CAT_ID   = 67643
ELEMENT_SET_NO = 999
REV_AT_EPOCH   = 328
BSTAR          = .23079704E-2
MEAN_MOTION_DOT = .39487E-2
MEAN_MOTION_DDOT = 0

CCSDS_OMM_VERS = 2.0
CREATION_DATE  = 
ORIGINATOR     = 

OBJECT_NAME    = STARLINK-36623
OBJECT_ID      = 2026-020AD
CENTER_NAME    = EARTH
REF_FRAME      = TEME
TIME_SYSTEM    = UTC
MEAN_ELEMENT_THEORY = SGP/SGP4

EPOCH          = 2026-02-19T21:53:54.285504
MEAN_MOTION    = 15.76412304
ECCENTRICITY   = .00019295
INCLINATION    = 42.9982
RA_OF_ASC_NODE = 249.9186
ARG_OF_PERICENTER = 259.3230
MEAN_ANOMALY   = 100.7423

EPHEMERIS_TYPE = 0
CLASSIFICATION_TYPE = U
NORAD_CAT_ID   = 67644
ELEMENT_SET_NO = 999
REV_AT_EPOCH   = 328
BSTAR          = .914331E-3
MEAN_MOTION_DOT = .151401E-2
MEAN_MOTION_DDOT = 0

CCSDS_OMM_VERS = 2.0
CREATION_DATE  = 
ORIGINATOR     = 

OBJECT_NAME    = STARLINK-36619
OBJECT_ID      = 2026-020AE
CENTER_NAME    = EARTH
REF_FRAME      = TEME
TIME_SYSTEM    = UTC
MEAN_ELEMENT_THEORY = SGP/SGP4

EPOCH          = 2026-02-19T21:50:45.288096
MEAN_MOTION    = 15.76428088
ECCENTRICITY   = .00017437
INCLINATION    = 42.9981
RA_OF_ASC_NODE = 249.9011
ARG_OF_PERICENTER = 289.3557
MEAN_ANOMALY   = 70.7124

EPHEMERIS_TYPE = 0
CLASSIFICATION_TYPE = U
NORAD_CAT_ID   = 67645
ELEMENT_SET_NO = 999
REV_AT_EPOCH   = 328
BSTAR          = .14924225E-2
MEAN_MOTION_DOT = .250543E-2
MEAN_MOTION_DDOT = 0

CCSDS_OMM_VERS = 2.0
CREATION_DATE  = 
ORIGINATOR     = 

OBJECT_NAME    = ALSAT-3B
OBJECT_ID      = 2026-021A
CENTER_NAME    = EARTH
REF_FRAME      = TEME
TIME_SYSTEM    = UTC
MEAN_ELEMENT_THEORY = SGP/SGP4

EPOCH          = 2026-02-19T21:57:55.555776
MEAN_MOTION    = 15.23665047
ECCENTRICITY   = .00124321
INCLINATION    = 97.4700
RA_OF_ASC_NODE = 125.3288
ARG_OF_PERICENTER = 191.6686
MEAN_ANOMALY   = 168.4265

EPHEMERIS_TYPE = 0
CLASSIFICATION_TYPE = U
NORAD_CAT_ID   = 67646
ELEMENT_SET_NO = 999
REV_AT_EPOCH   = 301
BSTAR          = .24468482E-3
MEAN_MOTION_DOT = .5808E-4
MEAN_MOTION_DDOT = 0

CCSDS_OMM_VERS = 2.0
CREATION_DATE  = 
ORIGINATOR     = 

OBJECT_NAME    = CZ-2C R/B
OBJECT_ID      = 2026-021B
CENTER_NAME    = EARTH
REF_FRAME      = TEME
TIME_SYSTEM    = UTC
MEAN_ELEMENT_THEORY = SGP/SGP4

EPOCH          = 2026-02-19T22:02:38.233248
MEAN_MOTION    = 15.23589824
ECCENTRICITY   = .01532301
INCLINATION    = 97.6541
RA_OF_ASC_NODE = 126.0308
ARG_OF_PERICENTER = 73.0870
MEAN_ANOMALY   = 288.7101

EPHEMERIS_TYPE = 0
CLASSIFICATION_TYPE = U
NORAD_CAT_ID   = 67647
ELEMENT_SET_NO = 999
REV_AT_EPOCH   = 299
BSTAR          = .31615085E-3
MEAN_MOTION_DOT = .10469E-3
MEAN_MOTION_DDOT = 0

CCSDS_OMM_VERS = 2.0
CREATION_DATE  = 
ORIGINATOR     = 

OBJECT_NAME    = STARLINK-36719
OBJECT_ID      = 2026-022A
CENTER_NAME    = EARTH
REF_FRAME      = TEME
TIME_SYSTEM    = UTC
MEAN_ELEMENT_THEORY = SGP/SGP4

EPOCH          = 2026-02-19T20:59:55.946976
MEAN_MOTION    = 15.75229321
ECCENTRICITY   = .00019261
INCLINATION    = 97.2833
RA_OF_ASC_NODE = 83.9605
ARG_OF_PERICENTER = 65.9863
MEAN_ANOMALY   = 294.1604

EPHEMERIS_TYPE = 0
CLASSIFICATION_TYPE = U
NORAD_CAT_ID   = 67648
ELEMENT_SET_NO = 999
REV_AT_EPOCH   = 274
BSTAR          = .74898368E-3
MEAN_MOTION_DOT = .113275E-2
MEAN_MOTION_DDOT = 0

CCSDS_OMM_VERS = 2.0
CREATION_DATE  = 
ORIGINATOR     = 

OBJECT_NAME    = STARLINK-36342
OBJECT_ID      = 2026-022B
CENTER_NAME    = EARTH
REF_FRAME      = TEME
TIME_SYSTEM    = UTC
MEAN_ELEMENT_THEORY = SGP/SGP4

EPOCH          = 2026-02-19T20:58:55.007328
MEAN_MOTION    = 15.75222656
ECCENTRICITY   = .00015392
INCLINATION    = 97.2836
RA_OF_ASC_NODE = 83.9608
ARG_OF_PERICENTER = 71.1183
MEAN_ANOMALY   = 289.0249

EPHEMERIS_TYPE = 0
CLASSIFICATION_TYPE = U
NORAD_CAT_ID   = 67649
ELEMENT_SET_NO = 999
REV_AT_EPOCH   = 274
BSTAR          = .8290952E-3
MEAN_MOTION_DOT = .125547E-2
MEAN_MOTION_DDOT = 0

CCSDS_OMM_VERS = 2.0
CREATION_DATE  = 
ORIGINATOR     = 

OBJECT_NAME    = STARLINK-36703
OBJECT_ID      = 2026-022C
CENTER_NAME    = EARTH
REF_FRAME      = TEME
TIME_SYSTEM    = UTC
MEAN_ELEMENT_THEORY = SGP/SGP4

EPOCH          = 2026-02-19T22:28:51.955680
MEAN_MOTION    = 15.75234566
ECCENTRICITY   = .0001518
INCLINATION    = 97.2833
RA_OF_ASC_NODE = 84.0290
ARG_OF_PERICENTER = 75.4634
MEAN_ANOMALY   = 284.6800

EPHEMERIS_TYPE = 0
CLASSIFICATION_TYPE = U
NORAD_CAT_ID   = 67650
ELEMENT_SET_NO = 999
REV_AT_EPOCH   = 275
BSTAR          = .75461218E-3
MEAN_MOTION_DOT = .114162E-2
MEAN_MOTION_DDOT = 0

CCSDS_OMM_VERS = 2.0
CREATION_DATE  = 
ORIGINATOR     = 

OBJECT_NAME    = STARLINK-36696
OBJECT_ID      = 2026-022D
CENTER_NAME    = EARTH
REF_FRAME      = TEME
TIME_SYSTEM    = UTC
MEAN_ELEMENT_THEORY = SGP/SGP4

EPOCH          = 2026-02-19T22:26:19.654944
MEAN_MOTION    = 15.75246135
ECCENTRICITY   = .00013568
INCLINATION    = 97.2833
RA_OF_ASC_NODE = 84.0317
ARG_OF_PERICENTER = 89.5943
MEAN_ANOMALY   = 270.5477

EPHEMERIS_TYPE = 0
CLASSIFICATION_TYPE = U
NORAD_CAT_ID   = 67651
ELEMENT_SET_NO = 999
REV_AT_EPOCH   = 275
BSTAR          = .93086746E-3
MEAN_MOTION_DOT = .141379E-2
MEAN_MOTION_DDOT = 0

CCSDS_OMM_VERS = 2.0
CREATION_DATE  = 
ORIGINATOR     = 

OBJECT_NAME    = STARLINK-36699
OBJECT_ID      = 2026-022E
CENTER_NAME    = EARTH
REF_FRAME      = TEME
TIME_SYSTEM    = UTC
MEAN_ELEMENT_THEORY = SGP/SGP4

EPOCH          = 2026-02-19T22:25:18.687648
MEAN_MOTION    = 15.75265679
ECCENTRICITY   = .00013446
INCLINATION    = 97.2828
RA_OF_ASC_NODE = 84.0322
ARG_OF_PERICENTER = 80.5251
MEAN_ANOMALY   = 279.6166

EPHEMERIS_TYPE = 0
CLASSIFICATION_TYPE = U
NORAD_CAT_ID   = 67652
ELEMENT_SET_NO = 999
REV_AT_EPOCH   = 275
BSTAR          = .14491849E-2
MEAN_MOTION_DOT = .222478E-2
MEAN_MOTION_DDOT = 0

CCSDS_OMM_VERS = 2.0
CREATION_DATE  = 
ORIGINATOR     = 

OBJECT_NAME    = STARLINK-36694
OBJECT_ID      = 2026-022F
CENTER_NAME    = EARTH
REF_FRAME      = TEME
TIME_SYSTEM    = UTC
MEAN_ELEMENT_THEORY = SGP/SGP4

EPOCH          = 2026-02-19T22:22:15.652704
MEAN_MOTION    = 15.75257019
ECCENTRICITY   = .00015554
INCLINATION    = 97.2829
RA_OF_ASC_NODE = 84.0357
ARG_OF_PERICENTER = 105.5190
MEAN_ANOMALY   = 254.6247

EPHEMERIS_TYPE = 0
CLASSIFICATION_TYPE = U
NORAD_CAT_ID   = 67653
ELEMENT_SET_NO = 999
REV_AT_EPOCH   = 275
BSTAR          = .10748071E-2
MEAN_MOTION_DOT = .16377E-2
MEAN_MOTION_DDOT = 0

CCSDS_OMM_VERS = 2.0
CREATION_DATE  = 
ORIGINATOR     = 

OBJECT_NAME    = STARLINK-36620
OBJECT_ID      = 2026-022G
CENTER_NAME    = EARTH
REF_FRAME      = TEME
TIME_SYSTEM    = UTC
MEAN_ELEMENT_THEORY = SGP/SGP4

EPOCH          = 2026-02-19T22:21:45.290880
MEAN_MOTION    = 15.75249917
ECCENTRICITY   = .00016189
INCLINATION    = 97.2830
RA_OF_ASC_NODE = 84.0356
ARG_OF_PERICENTER = 89.2230
MEAN_ANOMALY   = 270.9221

EPHEMERIS_TYPE = 0
CLASSIFICATION_TYPE = U
NORAD_CAT_ID   = 67654
ELEMENT_SET_NO = 999
REV_AT_EPOCH   = 275
BSTAR          = .10085668E-2
MEAN_MOTION_DOT = .153435E-2
MEAN_MOTION_DDOT = 0

